{"fetched_at":"2026-07-19T07:05:34.423Z","source":"https://celestrak.org/NORAD/elements/gp.php?NAME=SENTINEL&FORMAT=JSON","constellation":"sentinel-6","records":[{"OBJECT_NAME":"SENTINEL-6A","OBJECT_ID":"2020-086A","EPOCH":"2026-07-18T18:49:24.557664","CLASSIFICATION_TYPE":"U","MEAN_MOTION":12.80930243,"ECCENTRICITY":0.0007777,"INCLINATION":66.0412,"RA_OF_ASC_NODE":69.4257,"ARG_OF_PERICENTER":269.6689,"MEAN_ANOMALY":90.3435,"EPHEMERIS_TYPE":0,"NORAD_CAT_ID":46984,"ELEMENT_SET_NO":999,"REV_AT_EPOCH":26437,"BSTAR":0.000027119,"MEAN_MOTION_DOT":-5.5e-7,"MEAN_MOTION_DDOT":0},{"OBJECT_NAME":"SENTINEL-6B","OBJECT_ID":"2025-264A","EPOCH":"2026-07-18T18:49:54.622272","CLASSIFICATION_TYPE":"U","MEAN_MOTION":12.80930242,"ECCENTRICITY":0.0007836,"INCLINATION":66.0411,"RA_OF_ASC_NODE":69.5511,"ARG_OF_PERICENTER":268.5133,"MEAN_ANOMALY":91.4985,"EPHEMERIS_TYPE":0,"NORAD_CAT_ID":66514,"ELEMENT_SET_NO":999,"REV_AT_EPOCH":3121,"BSTAR":0.000029549,"MEAN_MOTION_DOT":-5.4e-7,"MEAN_MOTION_DDOT":0}]}
