SENTINEL-6A             
1 46984U 20086A   26199.78431201 -.00000055  00000+0  27119-4 0  9994
2 46984  66.0412  69.4257 0007777 269.6689  90.3435 12.80930243264377
SENTINEL-6B             
1 66514U 25264A   26199.78465998 -.00000054  00000+0  29549-4 0  9996
2 66514  66.0411  69.5511 0007836 268.5133  91.4985 12.80930242 31215
